NORAD_CAT_ID,OBJECT_NAME,OBJECT_TYPE,EPOCH,MEAN_MOTION,ECCENTRICITY,INCLINATION,RA_OF_ASC_NODE,ARG_OF_PERICENTER,MEAN_ANOMALY,BSTAR,MEAN_MOTION_DOT,MEAN_MOTION_DDOT,TLE_LINE0,TLE_LINE1,TLE_LINE2,SEMIMAJOR_AXIS,PERIOD,APOGEE,PERIGEE,DECAYED
51993.0,STARLINK-3648,PAYLOAD,2023-05-14 01:31:11,15.0885179,6.45e-05,53.2175,345.779,91.8254,268.2812,0.00014751,2.062e-05,0.0,0 STARLINK-3648,1 51993U 22025AP  23134.06332353  .00002062  00000-0  14751-3 0  9997,2 51993  53.2175 345.7790 0000645  91.8254 268.2812 15.08851790 65476,6917.844,95.437,540.156,539.263,0.0
51993.0,STARLINK-3648,PAYLOAD,2023-05-14 20:35:49,15.08844692,6.31e-05,53.217,342.2121,82.0064,278.0999,4.1792e-05,3.78e-06,0.0,0 STARLINK-3648,1 51993U 22025AP  23134.85820994  .00000378  00000-0  41792-4 0  9991,2 51993  53.2170 342.2121 0000631  82.0064 278.0999 15.08844692 66702,6917.866,95.437,540.168,539.295,0.0
51993.0,STARLINK-3648,PAYLOAD,2023-05-14 23:46:35,15.08846688,6.65e-05,53.2171,341.6166,85.1449,274.962,5.5871e-05,6.02e-06,0.0,0 STARLINK-3648,1 51993U 22025AP  23134.99068767  .00000602  00000-0  55871-4 0  9991,2 51993  53.2171 341.6166 0000665  85.1449 274.9620 15.08846688 65615,6917.86,95.437,540.185,539.265,0.0
51993.0,STARLINK-3648,PAYLOAD,2023-05-15 17:15:50,15.08835912,6.81e-05,53.2168,338.3443,82.4247,277.6823,-5.0703e-05,-1.094e-05,0.0,0 STARLINK-3648,1 51993U 22025AP  23135.71933892 -.00001094  00000-0 -50703-4 0  9999,2 51993  53.2168 338.3443 0000681  82.4247 277.6823 15.08835912 66834,6917.893,95.438,540.229,539.287,0.0
51993.0,STARLINK-3648,PAYLOAD,2023-05-16 05:58:55,15.08844563,7.44e-05,53.2177,335.9635,75.6079,284.4996,6.8716e-06,-1.78e-06,0.0,0 STARLINK-3648,1 51993U 22025AP  23136.24925151 -.00000178  00000-0  68716-5 0  9992,2 51993  53.2177 335.9635 0000744  75.6079 284.4996 15.08844563 66915,6917.866,95.437,540.246,539.217,0.0
51993.0,STARLINK-3648,PAYLOAD,2023-05-16 13:55:51,15.08835803,8.07e-05,53.2175,334.4806,97.6001,262.5083,3.4775e-05,2.66e-06,0.0,0 STARLINK-3648,1 51993U 22025AP  23136.58045833  .00000266  00000-0  34775-4 0  9993,2 51993  53.2175 334.4806 0000807  97.6001 262.5083 15.08835803 65859,6917.893,95.438,540.316,539.2,0.0
51993.0,STARLINK-3648,PAYLOAD,2023-05-16 20:17:23,15.08841073,9.86e-05,53.2183,333.2915,113.2445,246.8651,5.5209e-05,5.91e-06,0.0,0 STARLINK-3648,1 51993U 22025AP  23136.84541465  .00000591  00000-0  55209-4 0  9990,2 51993  53.2183 333.2915 0000986 113.2445 246.8651 15.08841073 65897,6917.877,95.437,540.424,539.06,0.0
51993.0,STARLINK-3648,PAYLOAD,2023-05-17 18:32:48,15.08837888,8.12e-05,53.2175,329.1274,109.702,250.406,8.6937e-05,1.096e-05,0.0,0 STARLINK-3648,1 51993U 22025AP  23137.77277902  .00001096  00000-0  86937-4 0  9998,2 51993  53.2175 329.1274 0000812 109.7020 250.4060 15.08837888 67141,6917.887,95.438,540.314,539.19,0.0
51993.0,STARLINK-3648,PAYLOAD,2023-05-17 20:08:11,15.088395,7.7e-05,53.2179,328.8306,101.4891,258.6188,0.00010288,1.35e-05,0.0,0 STARLINK-3648,1 51993U 22025AP  23137.83901833  .00001350  00000-0  10288-3 0  9990,2 51993  53.2179 328.8306 0000770 101.4891 258.6188 15.08839500 66047,6917.882,95.438,540.28,539.214,0.0
51993.0,STARLINK-3648,PAYLOAD,2023-05-17 23:18:57,15.08842912,7.52e-05,53.2178,328.2357,102.1509,257.9568,0.00013262,1.824e-05,0.0,0 STARLINK-3648,1 51993U 22025AP  23137.97149634  .00001824  00000-0  13262-3 0  9999,2 51993  53.2178 328.2357 0000752 102.1509 257.9568 15.08842912 66067,6917.871,95.437,540.257,539.216,0.0
51993.0,STARLINK-3648,PAYLOAD,2023-05-18 23:09:44,15.08839369,6.73e-05,53.2169,323.7748,92.7884,267.3185,4.2853e-05,3.94e-06,0.0,0 STARLINK-3648,1 51993U 22025AP  23138.96509801  .00000394  00000-0  42853-4 0  9995,2 51993  53.2169 323.7748 0000673  92.7884 267.3185 15.08839369 67325,6917.882,95.438,540.213,539.282,0.0
51993.0,STARLINK-3648,PAYLOAD,2023-05-19 18:14:22,15.08842195,6.29e-05,53.2168,320.2065,87.8917,272.2147,0.00014475,2.017e-05,0.0,0 STARLINK-3648,1 51993U 22025AP  23139.75997847  .00002017  00000-0  14475-3 0  9996,2 51993  53.2168 320.2065 0000629  87.8917 272.2147 15.08842195 66335,6917.874,95.437,540.174,539.304,0.0
51993.0,STARLINK-3648,PAYLOAD,2023-05-20 05:22:03,15.08847978,6.14e-05,53.2168,318.1249,84.7822,275.324,0.0001581,2.23e-05,0.0,0 STARLINK-3648,1 51993U 22025AP  23140.22365553  .00002230  00000-0  15810-3 0  9994,2 51993  53.2168 318.1249 0000614  84.7822 275.3240 15.08847978 67513,6917.856,95.437,540.146,539.296,0.0
51993.0,STARLINK-3648,PAYLOAD,2023-05-20 18:05:08,15.08850905,6.63e-05,53.2165,315.7451,98.5192,261.5875,0.00028724,4.288e-05,0.0,0 STARLINK-3648,1 51993U 22025AP  23140.75357327  .00004288  00000-0  28724-3 0  9995,2 51993  53.2165 315.7451 0000663  98.5192 261.5875 15.08850905 66485,6917.847,95.437,540.171,539.253,0.0
51993.0,STARLINK-3648,PAYLOAD,2023-05-21 05:12:50,15.08846065,6.6e-05,53.2164,313.6654,76.4783,283.6282,0.00017698,2.531e-05,0.0,0 STARLINK-3648,1 51993U 22025AP  23141.21725519  .00002531  00000-0  17698-3 0  9996,2 51993  53.2164 313.6654 0000660  76.4783 283.6282 15.08846065 67664,6917.862,95.437,540.183,539.27,0.0
51993.0,STARLINK-3648,PAYLOAD,2023-05-21 11:34:23,15.08839859,0.0001335,53.2163,312.4757,91.1599,268.9546,9.1418e-05,1.167e-05,0.0,0 STARLINK-3648,1 51993U 22025AP  23141.48222114  .00001167  00000-0  91418-4 0  9995,2 51993  53.2163 312.4757 0001335  91.1599 268.9546 15.08839859 66596,6917.881,95.438,540.669,538.822,0.0
51993.0,STARLINK-3648,PAYLOAD,2023-05-21 17:55:56,15.08828936,6.42e-05,53.216,311.2861,103.0621,257.0443,-0.0001256,-2.285e-05,0.0,0 STARLINK-3648,1 51993U 22025AP  23141.74718377 -.00002285  00000-0 -12560-3 0  9999,2 51993  53.2160 311.2861 0000642 103.0621 257.0443 15.08828936 67742,6917.914,95.438,540.223,539.335,0.0
51993.0,STARLINK-3648,PAYLOAD,2023-05-21 21:06:42,15.08831226,7.55e-05,53.2162,310.6902,112.95,247.1572,-5.4497e-05,-1.155e-05,0.0,0 STARLINK-3648,1 51993U 22025AP  23141.87966405 -.00001155  00000-0 -54497-4 0  9991,2 51993  53.2162 310.6902 0000755 112.9500 247.1572 15.08831226 66651,6917.907,95.438,540.295,539.25,0.0
51993.0,STARLINK-3648,PAYLOAD,2023-05-22 17:46:43,15.08854693,5.38e-05,53.2164,306.8259,104.8225,255.2827,0.00062138,9.619e-05,0.0,0 STARLINK-3648,1 51993U 22025AP  23142.74077916  .00009619  00000-0  62138-3 0  9999,2 51993  53.2164 306.8259 0000538 104.8225 255.2827 15.08854693 67891,6917.835,95.437,540.073,539.328,0.0
51993.0,STARLINK-3648,PAYLOAD,2023-05-22 20:57:29,15.08861292,5.84e-05,53.2164,306.2307,105.6667,254.4389,0.0010481,0.00016442,0.0,0 STARLINK-3648,1 51993U 22025AP  23142.87325937  .00016442  00000-0  10481-2 0  9997,2 51993  53.2164 306.2307 0000584 105.6667 254.4389 15.08861292 66806,6917.815,95.436,540.084,539.276,0.0
51993.0,STARLINK-3648,PAYLOAD,2023-05-23 11:15:58,15.08847978,0.0001315,53.2168,303.5545,98.0703,262.0438,0.00027612,4.11e-05,0.0,0 STARLINK-3648,1 51993U 22025AP  23143.46942228  .00004110  00000-0  27612-3 0  9995,2 51993  53.2168 303.5545 0001315  98.0703 262.0438 15.08847978 68002,6917.856,95.437,540.631,538.811,0.0
51993.0,STARLINK-3648,PAYLOAD,2023-05-23 17:37:30,15.08841977,9.29e-05,53.2168,302.3665,97.1483,262.9615,0.00018953,2.73e-05,0.0,0 STARLINK-3648,1 51993U 22025AP  23143.73438332  .00002730  00000-0  18953-3 0  9995,2 51993  53.2168 302.3665 0000929  97.1483 262.9615 15.08841977 66936,6917.874,95.437,540.382,539.097,0.0
51993.0,STARLINK-3648,PAYLOAD,2023-05-24 03:09:49,15.08835059,6.95e-05,53.2177,300.585,107.9932,252.1136,0.00032298,4.856e-05,0.0,0 STARLINK-3648,1 51993U 22025AP  23144.13182689  .00004856  00000-0  32298-3 0  9990,2 51993  53.2177 300.5850 0000695 107.9932 252.1136 15.08835059 68105,6917.895,95.438,540.241,539.28,0.0
51993.0,STARLINK-3648,PAYLOAD,2023-05-24 15:52:54,15.08843565,5.05e-05,53.2168,298.2044,87.7947,272.3102,0.00038986,5.923e-05,0.0,0 STARLINK-3648,1 51993U 22025AP  23144.66174574  .00005923  00000-0  38986-3 0  9998,2 51993  53.2168 298.2044 0000505  87.7947 272.3102 15.08843565 67077,6917.869,95.437,540.084,539.385,0.0
51993.0,STARLINK-3648,PAYLOAD,2023-05-25 14:08:18,15.08837172,4.51e-05,53.215,294.0379,49.3029,310.8002,2.4203e-05,9.8e-07,0.0,0 STARLINK-3648,1 51993U 22025AP  23145.58910644  .00000098  00000-0  24203-4 0  9992,2 51993  53.2150 294.0379 0000451  49.3029 310.8002 15.08837172 67218,6917.889,95.438,540.066,539.442,0.0
51993.0,STARLINK-3648,PAYLOAD,2023-05-25 17:19:05,15.08842451,7.97e-05,53.2166,293.4431,55.5183,304.5884,0.00016968,2.414e-05,0.0,0 STARLINK-3648,1 51993U 22025AP  23145.72158670  .00002414  00000-0  16968-3 0  9993,2 51993  53.2166 293.4431 0000797  55.5183 304.5884 15.08842451 68349,6917.873,95.437,540.289,539.187,0.0
51993.0,STARLINK-3648,PAYLOAD,2023-05-26 13:59:05,15.08843247,7.72e-05,53.2159,289.5782,64.2272,295.88,0.00014054,1.95e-05,0.0,0 STARLINK-3648,1 51993U 22025AP  23146.58270645  .00001950  00000-0  14054-3 0  9993,2 51993  53.2159 289.5782 0000772  64.2272 295.8800 15.08843247 67360,6917.87,95.437,540.27,539.201,0.0
51993.0,STARLINK-3648,PAYLOAD,2023-05-26 17:09:52,15.0884448,7.58e-05,53.2163,288.9833,71.7838,288.3237,0.00016119,2.279e-05,0.0,0 STARLINK-3648,1 51993U 22025AP  23146.71518598  .00002279  00000-0  16119-3 0  9999,2 51993  53.2163 288.9833 0000758  71.7838 288.3237 15.08844480 67383,6917.867,95.437,540.256,539.207,0.0
51993.0,STARLINK-3648,PAYLOAD,2023-05-27 02:42:10,15.08843814,6.35e-05,53.2165,287.201,73.4437,286.6625,7.8054e-05,9.55e-06,0.0,0 STARLINK-3648,1 51993U 22025AP  23147.11262604  .00000955  00000-0  78054-4 0  9994,2 51993  53.2165 287.2010 0000635  73.4437 286.6625 15.08843814 68554,6917.869,95.437,540.173,539.294,0.0
51993.0,STARLINK-3648,PAYLOAD,2023-05-27 15:25:16,15.08837647,5.64e-05,53.2159,284.8224,78.5428,281.5628,0.00015405,2.165e-05,0.0,0 STARLINK-3648,1 51993U 22025AP  23147.64255018  .00002165  00000-0  15405-3 0  9998,2 51993  53.2159 284.8224 0000564  78.5428 281.5628 15.08837647 68637,6917.888,95.438,540.143,539.362,0.0
